NORAD_CAT_ID,OBJECT_NAME,OBJECT_TYPE,EPOCH,MEAN_MOTION,ECCENTRICITY,INCLINATION,RA_OF_ASC_NODE,ARG_OF_PERICENTER,MEAN_ANOMALY,BSTAR,MEAN_MOTION_DOT,MEAN_MOTION_DDOT,TLE_LINE0,TLE_LINE1,TLE_LINE2,SEMIMAJOR_AXIS,PERIOD,APOGEE,PERIGEE,DECAYED
53415.0,STARLINK-4479,PAYLOAD,2024-04-13 21:34:43,15.08839547,0.0001582,53.2182,353.1531,109.1977,250.9186,1.5524e-05,-4.1e-07,0.0,0 STARLINK-4479,1 53415U 22097AD  24104.89911516 -.00000041  00000-0  15524-4 0  9996,2 53415  53.2182 353.1531 0001582 109.1977 250.9186 15.08839547 93274,6917.882,95.438,540.841,538.652,0.0
53415.0,STARLINK-4479,PAYLOAD,2024-04-14 21:25:26,15.08888898,0.000158,53.2189,348.6877,115.7955,244.32,0.00049633,7.63e-05,0.0,0 STARLINK-4479,1 53415U 22097AD  24105.89266455  .00007630  00000-0  49633-3 0  9999,2 53415  53.2189 348.6877 0001580 115.7955 244.3200 15.08888898 93424,6917.731,95.434,540.689,538.503,0.0
53415.0,STARLINK-4479,PAYLOAD,2024-04-15 02:11:40,15.08817301,0.0001898,53.2189,347.7991,113.0543,247.065,-0.00015084,-2.686e-05,0.0,0 STARLINK-4479,1 53415U 22097AD  24106.09144008 -.00002686  00000-0 -15084-3 0  9992,2 53415  53.2189 347.7991 0001898 113.0543 247.0650 15.08817301 93450,6917.95,95.439,541.128,538.502,0.0
53415.0,STARLINK-4479,PAYLOAD,2024-04-15 21:16:18,15.08828376,0.0001511,53.219,344.2374,81.8363,278.28,-7.0997e-05,-1.417e-05,0.0,0 STARLINK-4479,1 53415U 22097AD  24106.88632476 -.00001417  00000-0 -70997-4 0  9996,2 53415  53.2190 344.2374 0001511  81.8363 278.2800 15.08828376 93573,6917.916,95.438,540.826,538.736,0.0
53415.0,STARLINK-4479,PAYLOAD,2024-04-16 08:23:59,15.08840617,0.0001618,53.2188,342.1554,87.4774,272.6403,1.0772e-05,-1.17e-06,0.0,0 STARLINK-4479,1 53415U 22097AD  24107.34999211 -.00000117  00000-0  10772-4 0  9991,2 53415  53.2188 342.1554 0001618  87.4774 272.6403 15.08840617 93640,6917.879,95.438,540.863,538.624,0.0
53415.0,STARLINK-4479,PAYLOAD,2024-04-16 21:07:03,15.08849445,0.000156,53.2183,339.7769,95.3828,264.7342,4.7227e-05,4.64e-06,0.0,0 STARLINK-4479,1 53415U 22097AD  24107.87990643  .00000464  00000-0  47227-4 0  9998,2 53415  53.2183 339.7769 0001560  95.3828 264.7342 15.08849445 94181,6917.852,95.437,540.796,538.637,0.0
53415.0,STARLINK-4479,PAYLOAD,2024-04-17 00:17:49,15.08860404,0.0001252,53.2174,339.1811,99.232,260.8814,0.00039413,5.994e-05,0.0,0 STARLINK-4479,1 53415U 22097AD  24108.01238193  .00005994  00000-0  39413-3 0  9990,2 53415  53.2174 339.1811 0001252  99.2320 260.8814 15.08860404 93741,6917.818,95.436,540.549,538.817,0.0
53415.0,STARLINK-4479,PAYLOAD,2024-04-17 19:22:29,15.08822547,0.0001537,53.2185,335.6174,98.1425,261.9742,-1.3437e-05,-5.02e-06,0.0,0 STARLINK-4479,1 53415U 22097AD  24108.80728805 -.00000502  00000-0 -13437-4 0  9992,2 53415  53.2185 335.6174 0001537  98.1425 261.9742 15.08822547 93867,6917.934,95.439,540.862,538.735,0.0
53415.0,STARLINK-4479,PAYLOAD,2024-04-17 20:57:52,15.08825101,0.0001548,53.2177,335.3186,90.1777,269.9392,-2.9487e-05,-7.57e-06,0.0,0 STARLINK-4479,1 53415U 22097AD  24108.87352696 -.00000757  00000-0 -29487-4 0  9994,2 53415  53.2177 335.3186 0001548  90.1777 269.9392 15.08825101 94333,6917.926,95.438,540.862,538.72,0.0
53415.0,STARLINK-4479,PAYLOAD,2024-04-18 00:08:39,15.08827993,0.0001609,53.218,334.7241,85.8849,274.2327,0.00014956,2.092e-05,0.0,0 STARLINK-4479,1 53415U 22097AD  24109.00600778  .00002092  00000-0  14956-3 0  9993,2 53415  53.2180 334.7241 0001609  85.8849 274.2327 15.08827993 94351,6917.917,95.438,540.895,538.669,0.0
53415.0,STARLINK-4479,PAYLOAD,2024-04-18 20:48:39,15.08850986,0.0001518,53.2173,330.8574,93.9015,266.2151,0.0008821,0.00013783,0.0,0 STARLINK-4479,1 53415U 22097AD  24109.86712746  .00013783  00000-0  88210-3 0  9999,2 53415  53.2173 330.8574 0001518  93.9015 266.2151 15.08850986 94021,6917.847,95.437,540.762,538.662,0.0
53415.0,STARLINK-4479,PAYLOAD,2024-04-18 22:24:02,15.08858199,0.000155,53.2172,330.5604,88.8499,271.2671,0.0010969,0.00017221,0.0,0 STARLINK-4479,1 53415U 22097AD  24109.93336664  .00017221  00000-0  10969-2 0  9994,2 53415  53.2172 330.5604 0001550  88.8499 271.2671 15.08858199 94494,6917.825,95.436,540.762,538.617,0.0
53415.0,STARLINK-4479,PAYLOAD,2024-04-18 23:59:25,15.08865037,0.000149,53.2169,330.26,95.5796,264.5367,0.0012895,0.00020308,0.0,0 STARLINK-4479,1 53415U 22097AD  24109.99960428  .00020308  00000-0  12895-2 0  9991,2 53415  53.2169 330.2600 0001490  95.5796 264.5367 15.08865037 94048,6917.804,95.436,540.7,538.638,0.0
53415.0,STARLINK-4479,PAYLOAD,2024-04-19 20:39:26,15.08846109,0.0001609,53.2172,326.394,37.6541,322.4563,0.00034822,5.259e-05,0.0,0 STARLINK-4479,1 53415U 22097AD  24110.86072308  .00005259  00000-0  34822-3 0  9993,2 53415  53.2172 326.3940 0001609  37.6541 322.4563 15.08846109 94177,6917.862,95.437,540.84,538.614,0.0
53415.0,STARLINK-4479,PAYLOAD,2024-04-19 23:50:10,15.08915479,0.0001076,53.2173,325.7992,112.6683,247.4423,0.0025869,0.00041209,0.0,0 STARLINK-4479,1 53415U 22097AD  24110.99318241  .00041209  00000-0  25869-2 0  9991,2 53415  53.2173 325.7992 0001076 112.6683 247.4423 15.08915479 94197,6917.65,95.433,540.259,538.77,0.0
53415.0,STARLINK-4479,PAYLOAD,2024-04-20 14:08:40,15.08833657,0.0001621,53.2171,323.1232,107.6334,252.4836,0.0012199,0.00019177,0.0,0 STARLINK-4479,1 53415U 22097AD  24111.58936194  .00019177  00000-0  12199-2 0  9991,2 53415  53.2171 323.1232 0001621 107.6334 252.4836 15.08833657 94749,6917.9,95.438,540.886,538.643,0.0
53415.0,STARLINK-4479,PAYLOAD,2024-04-20 20:30:13,15.08841842,0.0001307,53.2176,321.9323,108.0396,252.0738,0.00083001,0.00012947,0.0,0 STARLINK-4479,1 53415U 22097AD  24111.85432137  .00012947  00000-0  83001-3 0  9998,2 53415  53.2176 321.9323 0001307 108.0396 252.0738 15.08841842 94321,6917.875,95.437,540.644,538.836,0.0
53415.0,STARLINK-4479,PAYLOAD,2024-04-20 23:40:59,15.0884272,0.0001286,53.2174,321.3379,108.2065,251.9067,0.00093626,0.00014645,0.0,0 STARLINK-4479,1 53415U 22097AD  24111.98680208  .00014645  00000-0  93626-3 0  9997,2 53415  53.2174 321.3379 0001286 108.2065 251.9067 15.08842720 94807,6917.872,95.437,540.627,538.847,0.0
53415.0,STARLINK-4479,PAYLOAD,2024-04-21 20:21:00,15.08846595,0.0001358,53.2182,317.4682,85.9237,274.1911,0.00095762,0.00014988,0.0,0 STARLINK-4479,1 53415U 22097AD  24112.84792595  .00014988  00000-0  95762-3 0  9999,2 53415  53.2182 317.4682 0001358  85.9237 274.1911 15.08846595 94473,6917.86,95.437,540.665,538.786,0.0
53415.0,STARLINK-4479,PAYLOAD,2024-04-21 23:31:46,15.08850692,0.0001419,53.2184,316.8747,91.4505,268.665,0.00079569,0.00012402,0.0,0 STARLINK-4479,1 53415U 22097AD  24112.98040452  .00012402  00000-0  79569-3 0  9998,2 53415  53.2184 316.8747 0001419  91.4505 268.6650 15.08850692 94952,6917.848,95.437,540.694,538.731,0.0
53415.0,STARLINK-4479,PAYLOAD,2024-04-22 20:11:48,15.08829184,0.000144,53.2179,313.0109,103.4944,256.6209,0.00014686,2.049e-05,0.0,0 STARLINK-4479,1 53415U 22097AD  24113.84153505  .00002049  00000-0  14686-3 0  9993,2 53415  53.2179 313.0109 0001440 103.4944 256.6209 15.08829184 94625,6917.913,95.438,540.775,538.782,0.0
53415.0,STARLINK-4479,PAYLOAD,2024-04-23 20:02:35,15.08856389,0.0001319,53.2173,308.5518,95.2369,264.8774,0.00082358,0.00012849,0.0,0 STARLINK-4479,1 53415U 22097AD  24114.83513334  .00012849  00000-0  82358-3 0  9993,2 53415  53.2173 308.5518 0001319  95.2369 264.8774 15.08856389 94777,6917.83,95.437,540.608,538.783,0.0
53415.0,STARLINK-4479,PAYLOAD,2024-04-23 21:37:58,15.08862954,0.0001281,53.2171,308.2568,88.0795,272.0343,0.0010181,0.00015962,0.0,0 STARLINK-4479,1 53415U 22097AD  24114.90137229  .00015962  00000-0  10181-2 0  9999,2 53415  53.2171 308.2568 0001281  88.0795 272.0343 15.08862954 95249,6917.81,95.436,540.561,538.789,0.0
53415.0,STARLINK-4479,PAYLOAD,2024-04-24 19:53:22,15.08860419,0.0001377,53.2164,304.0965,83.9729,276.142,0.00063161,9.784e-05,0.0,0 STARLINK-4479,1 53415U 22097AD  24115.82872834  .00009784  00000-0  63161-3 0  9991,2 53415  53.2164 304.0965 0001377  83.9729 276.1420 15.08860419 94922,6917.818,95.436,540.636,538.73,0.0
53415.0,STARLINK-4479,PAYLOAD,2024-04-24 21:28:45,15.0886589,0.0001342,53.2171,303.7977,88.2258,271.8888,0.00086771,0.00013558,0.0,0 STARLINK-4479,1 53415U 22097AD  24115.89496665  .00013558  00000-0  86771-3 0  9998,2 53415  53.2171 303.7977 0001342  88.2258 271.8888 15.08865890 95396,6917.801,95.436,540.595,538.738,0.0
53415.0,STARLINK-4479,PAYLOAD,2024-04-25 19:44:09,15.08843417,8.7e-05,53.2158,299.6343,113.6113,246.4971,0.00094505,0.00014786,0.0,0 STARLINK-4479,1 53415U 22097AD  24116.82232944  .00014786  00000-0  94505-3 0  9998,2 53415  53.2158 299.6343 0000870 113.6113 246.4971 15.08843417 95076,6917.87,95.437,540.337,539.133,0.0
53415.0,STARLINK-4479,PAYLOAD,2024-04-25 21:19:32,15.08845184,9.07e-05,53.2163,299.3328,80.8246,279.2849,0.0010556,0.00016554,0.0,0 STARLINK-4479,1 53415U 22097AD  24116.88857037  .00016554  00000-0  10556-2 0  9998,2 53415  53.2163 299.3328 0000907  80.8246 279.2849 15.08845184 95548,6917.865,95.437,540.357,539.102,0.0
53415.0,STARLINK-4479,PAYLOAD,2024-04-26 11:38:01,15.08822908,6.73e-05,53.2168,296.6559,111.8998,248.2065,0.00060297,9.317e-05,0.0,0 STARLINK-4479,1 53415U 22097AD  24117.48473620  .00009317  00000-0  60297-3 0  9994,2 53415  53.2168 296.6559 0000673 111.8998 248.2065 15.08822908 95172,6917.933,95.439,540.263,539.332,0.0
53415.0,STARLINK-4479,PAYLOAD,2024-04-26 17:59:33,15.08834854,0.0001003,53.216,295.47,84.1478,275.9628,0.0012865,0.00020243,0.0,0 STARLINK-4479,1 53415U 22097AD  24117.74969885  .00020243  00000-0  12865-2 0  9994,2 53415  53.2160 295.4700 0001003  84.1478 275.9628 15.08834854 95672,6917.896,95.438,540.455,539.067,0.0
53415.0,STARLINK-4479,PAYLOAD,2024-04-27 05:07:15,15.08853895,0.0001213,53.2155,293.3886,74.5307,285.5819,0.0010613,0.00016649,0.0,0 STARLINK-4479,1 53415U 22097AD  24118.21337640  .00016649  00000-0  10613-2 0  9999,2 53415  53.2155 293.3886 0001213  74.5307 285.5819 15.08853895 95287,6917.838,95.437,540.542,538.864,0.0
